ONEWEB-0195             
1 48240U 21031AG  23308.17145190  .00012774  00000+0  34316-1 0  9997
2 48240  87.8933 119.9942 0000769 118.1398 241.9810 13.14614664122552
ONEWEB-0201             
1 48241U 21031AH  23308.47181724  .00000437  00000+0  11435-2 0  9995
2 48241  87.8936 119.9695 0001499  95.0530 265.0770 13.14501425122825
ONEWEB-0207             
1 48242U 21031AJ  23308.44673088 -.00017515  00000+0 -47481-1 0  9998
2 48242  87.8935 119.9422 0002221 105.3734 254.7641 13.14338655122733
ONEWEB-0208             
1 48243U 21031AK  23308.19603500 -.00009631  00000+0 -26071-1 0  9995
2 48243  87.8935 120.0076 0001449  95.3029 264.8266 13.14417537122718
ONEWEB-0200             
1 48244U 21031AL  23307.93164545 -.00002938  00000+0 -79639-2 0  9990
2 48244  87.8933 120.0523 0001085  93.1373 266.9881 13.14477267122608
ONEWEB-0217             
1 48245U 21031AM  23308.17675606  .00009691  00000+0  26046-1 0  9997
2 48245  87.8950 119.9894 0001155  91.7678 268.3584 13.14585224122593
ONEWEB-0211             
1 48767U 21045A   23308.43467899  .00000021  00000+0  21526-4 0  9992
2 48767  87.8964  89.4548 0001517  95.9070 264.2234 13.15547614119885
ONEWEB-0223             
1 48768U 21045B   23307.92446886  .00000233  00000+0  58372-3 0  9992
2 48768  87.8961  89.5606 0001108  88.9240 271.2017 13.15548493118675
